PROBA-1                 
1 26958U 01049B   26159.17568549  .00002579  00000+0  16887-3 0  9997
2 26958  97.9599 167.3939 0055523 152.0751 208.3475 15.07455733342265
CUTE-1 (CO-55)          
1 27844U 03031E   26158.97516384  .00000321  00000+0  15786-3 0  9992
2 27844  98.6735 167.6499 0008926 205.5861 154.4877 14.24330292190364
CUBESAT XI-IV (CO-57)   
1 27848U 03031J   26158.95900340  .00000277  00000+0  14071-3 0  9999
2 27848  98.6766 167.3539 0008515 225.8669 134.1810 14.23616071190069
APRIZESAT 4             
1 35684U 09041D   26159.15375160  .00000697  00000+0  89716-4 0  9997
2 35684  98.1412 234.2942 0043044 352.7700   7.2888 14.83867536910024
APRIZESAT 3             
1 35686U 09041F   26159.00387988  .00001495  00000+0  13325-3 0  9993
2 35686  98.2054 311.7891 0062765  97.2528 263.5832 14.96215729915007
PROBA-2                 
1 36037U 09059B   26159.09331554  .00000218  00000+0  61254-4 0  9997
2 36037  98.2451 342.5724 0012264 312.9339  47.0828 14.54858700880201
APRIZESAT 5             
1 37792U 11044E   26158.75161139  .00001317  00000+0  17320-3 0  9990
2 37792  98.2452  91.5248 0053059  34.3903 326.0724 14.81055962797393
APRIZESAT 6             
1 37793U 11044F   26158.72840367  .00000893  00000+0  13284-3 0  9998
2 37793  98.2371  69.0347 0044315 115.4190 299.5198 14.76902825795758
PROBA-V                 
1 39159U 13021A   26159.19298488  .00000078  00000+0  52071-4 0  9999
2 39159  98.3580 138.2439 0004722 145.2119 214.9370 14.23595079679834
APRIZESAT 7             
1 39416U 13066A   26159.09738263  .00001343  00000+0  13830-3 0  9998
2 39416  97.7704 112.4481 0034425 240.3619 119.4169 14.91546074679872
APRIZESAT 8             
1 39425U 13066K   26158.79209973  .00001229  00000+0  13887-3 0  9990
2 39425  97.8217 106.3913 0044905 318.3975  41.3827 14.87634950678272
BUGSAT-1 (TITA)         
1 40014U 14033E   26159.18891392  .00006614  00000+0  35002-3 0  9993
2 40014  98.0419 251.2121 0027414 209.3407 150.6286 15.15490840654470
SAUDISAT 4              
1 40016U 14033G   26159.19170753  .00000782  00000+0  10947-3 0  9998
2 40016  97.7573 305.6384 0046218 102.3417 258.2975 14.79532398644743
APRIZESAT 9             
1 40018U 14033J   26159.11241324  .00000734  00000+0  11529-3 0  9999
2 40018  97.9050 292.5334 0065094 228.6690 130.8907 14.74202917642221
APRIZESAT 10            
1 40019U 14033K   26159.07900769  .00000474  00000+0  82368-4 0  9991
2 40019  97.9639 286.2421 0077627 303.4380  55.9420 14.70875008640919
TECHDEMOSAT-1 (TDS-1)   
1 40076U 14037H   26158.96715494  .00009066  00000+0  51519-3 0  9993
2 40076  98.3815 150.2674 0004647 309.1661  50.9155 15.13160742646837
TECHNOSAT               
1 42829U 17042E   26159.00712351  .00003273  00000+0  23457-3 0  9999
2 42829  97.4268 317.0161 0018875 123.1352 237.1690 15.04900003485320
FLYING LAPTOP           
1 42831U 17042G   26159.18656231  .00003173  00000+0  25162-3 0  9999
2 42831  97.4657 315.0688 0019124 151.1196 209.1091 15.01085919485109
HAWK-A                  
1 43765U 18099H   26159.02818186  .00007426  00000+0  29991-3 0  9990
2 43765  97.3915 211.3837 0033559 319.6598  40.2151 15.24536500411709
HAWK-B                  
1 43794U 18099AN  26159.10454316  .00006926  00000+0  29600-3 0  9993
2 43794  97.3967 210.8933 0031227 338.1496  21.8406 15.22727709411655
HAWK-C                  
1 43799U 18099AT  26158.89441475  .00008636  00000+0  31201-3 0  9995
2 43799  97.3892 212.1188 0039235 320.0343  39.8010 15.27974189412496
SALSAT                  
1 46495U 20068K   26158.98778249  .00008175  00000+0  28698-3 0  9996
2 46495  97.8853 161.4934 0008912 345.1768  14.9208 15.29667638313950
HAWK-2C                 
1 47502U 21006CT  26159.02348929  .00007002  00000+0  21140-3 0  9996
2 47502  97.2283 203.5168 0005660 220.5779 139.5044 15.34554187298092
HAWK-2A                 
1 47505U 21006CW  26159.02607198  .00006903  00000+0  20837-3 0  9996
2 47505  97.2324 204.1917 0005099 224.9270 135.1561 15.34568999298092
HAWK-2B                 
1 47508U 21006CZ  26159.02208964  .00007940  00000+0  23871-3 0  9990
2 47508  97.2194 202.5343 0005642 222.6102 137.4704 15.34642978298092
HAWK-3B                 
1 48931U 21059BE  26159.01393003  .00044596  00000+0  39028-3 0  9996
2 48931  97.6670 354.8600 0003925  14.1297 346.0073 15.68782139276414
HAWK-3C                 
1 48948U 21059BX  26158.50331535  .00040974  00000+0  35937-3 0  9990
2 48948  97.6800 359.9702 0004427  15.4043 344.7352 15.68742614276337
HAWK-3A                 
1 48957U 21059CG  26159.01351049  .00042810  00000+0  37474-3 0  9998
2 48957  97.6737 357.7419 0004378  16.2021 343.9378 15.68782111276411
HAWK-5C                 
1 52754U 22057Y   26158.94862457  .00019657  00000+0  33900-3 0  9991
2 52754  97.6588 318.0232 0005407 110.2947 249.8885 15.51066354224915
HAWK-5B                 
1 52756U 22057AA  26158.94847749  .00019897  00000+0  34305-3 0  9996
2 52756  97.6598 316.3718 0006029 102.9986 257.1938 15.51066311224914
HAWK-5A                 
1 52757U 22057AB  26158.94825038  .00019303  00000+0  33294-3 0  9992
2 52757  97.6599 317.2031 0005986 106.6702 253.5207 15.51062161224910
